<?xml version="1.0" encoding="UTF-8"?>
<ndm xmlns:xsi="http://www.w3.org/2001/XMLSchema-instance" xsi:noNamespaceSchemaLocation="https://sanaregistry.org/r/ndmxml_unqualified/ndmxml-2.0.0-master-2.0.xsd">
<omm id="CCSDS_OMM_VERS" version="2.0">
<header><CREATION_DATE/><ORIGINATOR/></header><body><segment><metadata><OBJECT_NAME>ORBCOMM FM33</OBJECT_NAME><OBJECT_ID>1999-065D</OBJECT_ID><CENTER_NAME>EARTH</CENTER_NAME><REF_FRAME>TEME</REF_FRAME><TIME_SYSTEM>UTC</TIME_SYSTEM><MEAN_ELEMENT_THEORY>SGP4</MEAN_ELEMENT_THEORY></metadata><data><meanElements><EPOCH>2024-07-11T10:38:32.079840</EPOCH><MEAN_MOTION>14.37923179</MEAN_MOTION><ECCENTRICITY>.0006573</ECCENTRICITY><INCLINATION>45.0276</INCLINATION><RA_OF_ASC_NODE>176.5733</RA_OF_ASC_NODE><ARG_OF_PERICENTER>153.0117</ARG_OF_PERICENTER><MEAN_ANOMALY>207.1075</MEAN_ANOMALY></meanElements><tleParameters><EPHEMERIS_TYPE>0</EPHEMERIS_TYPE><CLASSIFICATION_TYPE>U</CLASSIFICATION_TYPE><NORAD_CAT_ID>25983</NORAD_CAT_ID><ELEMENT_SET_NO>999</ELEMENT_SET_NO><REV_AT_EPOCH>28698</REV_AT_EPOCH><BSTAR>.52719E-3</BSTAR><MEAN_MOTION_DOT>.1465E-4</MEAN_MOTION_DOT><MEAN_MOTION_DDOT>0</MEAN_MOTION_DDOT></tleParameters></data></segment></body></omm>
<omm id="CCSDS_OMM_VERS" version="2.0">
<header><CREATION_DATE/><ORIGINATOR/></header><body><segment><metadata><OBJECT_NAME>ORBCOMM FM36</OBJECT_NAME><OBJECT_ID>1999-065E</OBJECT_ID><CENTER_NAME>EARTH</CENTER_NAME><REF_FRAME>TEME</REF_FRAME><TIME_SYSTEM>UTC</TIME_SYSTEM><MEAN_ELEMENT_THEORY>SGP4</MEAN_ELEMENT_THEORY></metadata><data><meanElements><EPOCH>2024-07-11T12:05:41.602272</EPOCH><MEAN_MOTION>14.35848651</MEAN_MOTION><ECCENTRICITY>.0002678</ECCENTRICITY><INCLINATION>45.0396</INCLINATION><RA_OF_ASC_NODE>262.8423</RA_OF_ASC_NODE><ARG_OF_PERICENTER>341.0737</ARG_OF_PERICENTER><MEAN_ANOMALY>19.0011</MEAN_ANOMALY></meanElements><tleParameters><EPHEMERIS_TYPE>0</EPHEMERIS_TYPE><CLASSIFICATION_TYPE>U</CLASSIFICATION_TYPE><NORAD_CAT_ID>25984</NORAD_CAT_ID><ELEMENT_SET_NO>999</ELEMENT_SET_NO><REV_AT_EPOCH>28600</REV_AT_EPOCH><BSTAR>.48853E-3</BSTAR><MEAN_MOTION_DOT>.1286E-4</MEAN_MOTION_DOT><MEAN_MOTION_DDOT>0</MEAN_MOTION_DDOT></tleParameters></data></segment></body></omm>
<omm id="CCSDS_OMM_VERS" version="2.0">
<header><CREATION_DATE/><ORIGINATOR/></header><body><segment><metadata><OBJECT_NAME>ORBCOMM FM35</OBJECT_NAME><OBJECT_ID>1999-065F</OBJECT_ID><CENTER_NAME>EARTH</CENTER_NAME><REF_FRAME>TEME</REF_FRAME><TIME_SYSTEM>UTC</TIME_SYSTEM><MEAN_ELEMENT_THEORY>SGP4</MEAN_ELEMENT_THEORY></metadata><data><meanElements><EPOCH>2024-07-11T13:34:38.567424</EPOCH><MEAN_MOTION>14.35356610</MEAN_MOTION><ECCENTRICITY>.0002812</ECCENTRICITY><INCLINATION>45.0398</INCLINATION><RA_OF_ASC_NODE>265.4174</RA_OF_ASC_NODE><ARG_OF_PERICENTER>174.4631</ARG_OF_PERICENTER><MEAN_ANOMALY>185.6248</MEAN_ANOMALY></meanElements><tleParameters><EPHEMERIS_TYPE>0</EPHEMERIS_TYPE><CLASSIFICATION_TYPE>U</CLASSIFICATION_TYPE><NORAD_CAT_ID>25985</NORAD_CAT_ID><ELEMENT_SET_NO>999</ELEMENT_SET_NO><REV_AT_EPOCH>28581</REV_AT_EPOCH><BSTAR>.37849E-3</BSTAR><MEAN_MOTION_DOT>.954E-5</MEAN_MOTION_DOT><MEAN_MOTION_DDOT>0</MEAN_MOTION_DDOT></tleParameters></data></segment></body></omm>
<omm id="CCSDS_OMM_VERS" version="2.0">
<header><CREATION_DATE/><ORIGINATOR/></header><body><segment><metadata><OBJECT_NAME>ORBCOMM FM34</OBJECT_NAME><OBJECT_ID>1999-065G</OBJECT_ID><CENTER_NAME>EARTH</CENTER_NAME><REF_FRAME>TEME</REF_FRAME><TIME_SYSTEM>UTC</TIME_SYSTEM><MEAN_ELEMENT_THEORY>SGP4</MEAN_ELEMENT_THEORY></metadata><data><meanElements><EPOCH>2024-07-11T11:13:37.077600</EPOCH><MEAN_MOTION>14.35333522</MEAN_MOTION><ECCENTRICITY>.0001366</ECCENTRICITY><INCLINATION>45.0392</INCLINATION><RA_OF_ASC_NODE>266.4257</RA_OF_ASC_NODE><ARG_OF_PERICENTER>78.3136</ARG_OF_PERICENTER><MEAN_ANOMALY>281.7865</MEAN_ANOMALY></meanElements><tleParameters><EPHEMERIS_TYPE>0</EPHEMERIS_TYPE><CLASSIFICATION_TYPE>U</CLASSIFICATION_TYPE><NORAD_CAT_ID>25986</NORAD_CAT_ID><ELEMENT_SET_NO>999</ELEMENT_SET_NO><REV_AT_EPOCH>28591</REV_AT_EPOCH><BSTAR>.39932E-3</BSTAR><MEAN_MOTION_DOT>.1014E-4</MEAN_MOTION_DOT><MEAN_MOTION_DDOT>0</MEAN_MOTION_DDOT></tleParameters></data></segment></body></omm>
<omm id="CCSDS_OMM_VERS" version="2.0">
<header><CREATION_DATE/><ORIGINATOR/></header><body><segment><metadata><OBJECT_NAME>ORBCOMM FM38</OBJECT_NAME><OBJECT_ID>2008-031A</OBJECT_ID><CENTER_NAME>EARTH</CENTER_NAME><REF_FRAME>TEME</REF_FRAME><TIME_SYSTEM>UTC</TIME_SYSTEM><MEAN_ELEMENT_THEORY>SGP4</MEAN_ELEMENT_THEORY></metadata><data><meanElements><EPOCH>2024-07-11T07:11:19.439520</EPOCH><MEAN_MOTION>14.77934435</MEAN_MOTION><ECCENTRICITY>.0005607</ECCENTRICITY><INCLINATION>48.4403</INCLINATION><RA_OF_ASC_NODE>135.9669</RA_OF_ASC_NODE><ARG_OF_PERICENTER>16.2631</ARG_OF_PERICENTER><MEAN_ANOMALY>343.8462</MEAN_ANOMALY></meanElements><tleParameters><EPHEMERIS_TYPE>0</EPHEMERIS_TYPE><CLASSIFICATION_TYPE>U</CLASSIFICATION_TYPE><NORAD_CAT_ID>33060</NORAD_CAT_ID><ELEMENT_SET_NO>999</ELEMENT_SET_NO><REV_AT_EPOCH>86426</REV_AT_EPOCH><BSTAR>.35431E-3</BSTAR><MEAN_MOTION_DOT>.2371E-4</MEAN_MOTION_DOT><MEAN_MOTION_DDOT>0</MEAN_MOTION_DDOT></tleParameters></data></segment></body></omm>
<omm id="CCSDS_OMM_VERS" version="2.0">
<header><CREATION_DATE/><ORIGINATOR/></header><body><segment><metadata><OBJECT_NAME>ORBCOMM FM41</OBJECT_NAME><OBJECT_ID>2008-031B</OBJECT_ID><CENTER_NAME>EARTH</CENTER_NAME><REF_FRAME>TEME</REF_FRAME><TIME_SYSTEM>UTC</TIME_SYSTEM><MEAN_ELEMENT_THEORY>SGP4</MEAN_ELEMENT_THEORY></metadata><data><meanElements><EPOCH>2024-07-11T09:12:34.032672</EPOCH><MEAN_MOTION>14.77657663</MEAN_MOTION><ECCENTRICITY>.0004878</ECCENTRICITY><INCLINATION>48.4436</INCLINATION><RA_OF_ASC_NODE>142.3357</RA_OF_ASC_NODE><ARG_OF_PERICENTER>1.7370</ARG_OF_PERICENTER><MEAN_ANOMALY>142.2959</MEAN_ANOMALY></meanElements><tleParameters><EPHEMERIS_TYPE>0</EPHEMERIS_TYPE><CLASSIFICATION_TYPE>U</CLASSIFICATION_TYPE><NORAD_CAT_ID>33061</NORAD_CAT_ID><ELEMENT_SET_NO>999</ELEMENT_SET_NO><REV_AT_EPOCH>86377</REV_AT_EPOCH><BSTAR>.40143E-3</BSTAR><MEAN_MOTION_DOT>.2696E-4</MEAN_MOTION_DOT><MEAN_MOTION_DDOT>0</MEAN_MOTION_DDOT></tleParameters></data></segment></body></omm>
<omm id="CCSDS_OMM_VERS" version="2.0">
<header><CREATION_DATE/><ORIGINATOR/></header><body><segment><metadata><OBJECT_NAME>ORBCOMM FM29</OBJECT_NAME><OBJECT_ID>2008-031C</OBJECT_ID><CENTER_NAME>EARTH</CENTER_NAME><REF_FRAME>TEME</REF_FRAME><TIME_SYSTEM>UTC</TIME_SYSTEM><MEAN_ELEMENT_THEORY>SGP4</MEAN_ELEMENT_THEORY></metadata><data><meanElements><EPOCH>2024-07-11T08:58:11.841024</EPOCH><MEAN_MOTION>14.77604899</MEAN_MOTION><ECCENTRICITY>.0006769</ECCENTRICITY><INCLINATION>48.4387</INCLINATION><RA_OF_ASC_NODE>150.4183</RA_OF_ASC_NODE><ARG_OF_PERICENTER>0.5742</ARG_OF_PERICENTER><MEAN_ANOMALY>139.0261</MEAN_ANOMALY></meanElements><tleParameters><EPHEMERIS_TYPE>0</EPHEMERIS_TYPE><CLASSIFICATION_TYPE>U</CLASSIFICATION_TYPE><NORAD_CAT_ID>33062</NORAD_CAT_ID><ELEMENT_SET_NO>999</ELEMENT_SET_NO><REV_AT_EPOCH>86368</REV_AT_EPOCH><BSTAR>.3845E-3</BSTAR><MEAN_MOTION_DOT>.2571E-4</MEAN_MOTION_DOT><MEAN_MOTION_DDOT>0</MEAN_MOTION_DDOT></tleParameters></data></segment></body></omm>
<omm id="CCSDS_OMM_VERS" version="2.0">
<header><CREATION_DATE/><ORIGINATOR/></header><body><segment><metadata><OBJECT_NAME>ORBCOMM FM39</OBJECT_NAME><OBJECT_ID>2008-031D</OBJECT_ID><CENTER_NAME>EARTH</CENTER_NAME><REF_FRAME>TEME</REF_FRAME><TIME_SYSTEM>UTC</TIME_SYSTEM><MEAN_ELEMENT_THEORY>SGP4</MEAN_ELEMENT_THEORY></metadata><data><meanElements><EPOCH>2024-07-11T10:10:05.125152</EPOCH><MEAN_MOTION>14.76552751</MEAN_MOTION><ECCENTRICITY>.0007896</ECCENTRICITY><INCLINATION>48.4394</INCLINATION><RA_OF_ASC_NODE>171.1796</RA_OF_ASC_NODE><ARG_OF_PERICENTER>336.0807</ARG_OF_PERICENTER><MEAN_ANOMALY>23.9739</MEAN_ANOMALY></meanElements><tleParameters><EPHEMERIS_TYPE>0</EPHEMERIS_TYPE><CLASSIFICATION_TYPE>U</CLASSIFICATION_TYPE><NORAD_CAT_ID>33063</NORAD_CAT_ID><ELEMENT_SET_NO>999</ELEMENT_SET_NO><REV_AT_EPOCH>86338</REV_AT_EPOCH><BSTAR>.34881E-3</BSTAR><MEAN_MOTION_DOT>.2253E-4</MEAN_MOTION_DOT><MEAN_MOTION_DDOT>0</MEAN_MOTION_DDOT></tleParameters></data></segment></body></omm>

</ndm>
